NANOSATC-BR1            
1 40024U 14033Q   24191.16909239  .00008479  00000+0  62051-3 0  9991
2 40024  98.0638 164.1931 0008694  97.3359 262.8854 15.03825029547077
QB50P1                  
1 40025U 14033R   24190.83157609  .00007599  00000+0  61307-3 0  9996
2 40025  98.0390 152.2976 0014998  92.0564 268.2376 15.00088500546120
QB50P2                  
1 40032U 14033Y   24190.81903313  .00007747  00000+0  64668-3 0  9991
2 40032  98.0074 143.8436 0012386  87.0926 273.1713 14.98789266545918
PERSEUS-M2              
1 40037U 14033AD  24190.84380215  .00002224  00000+0  23271-3 0  9999
2 40037  97.9269 121.7126 0014549 120.4136 239.8522 14.90600018545552
PERSEUS-M1              
1 40039U 14033AF  24191.20794473  .00002647  00000+0  27731-3 0  9991
2 40039  97.9067 118.0707 0014393 118.8033 241.4631 14.90383018545477
POLYITAN-1              
1 40042U 14033AJ  24190.86001438  .00011808  00000+0  87933-3 0  9997
2 40042  98.0692 156.0378 0014363  63.8820 296.3880 15.03011727546097
TIGRISAT                
1 40043U 14033AK  24190.99138796  .00002856  00000+0  38349-3 0  9990
2 40043  97.6975 352.7817 0054194 231.5974 128.0365 14.79069299540980
AEROCUBE 6A             
1 40045U 14033AM  24191.04567588  .00006587  00000+0  78410-3 0  9992
2 40045  97.6710   3.6648 0049739 208.4834 151.3661 14.83783589541271
AEROCUBE 6B             
1 40046U 14033AN  24190.93373756  .00006639  00000+0  77437-3 0  9998
2 40046  97.6677   2.2812 0048470 204.1320 155.7624 14.84662617541070
UKUBE-1                 
1 40074U 14037F   24191.03568448  .00008196  00000+0  76971-3 0  9991
2 40074  98.3432 122.3076 0004601  28.6874 331.4597 14.94227780542044
BRITE-PL2 (HEWELIUSZ)   
1 40119U 14049B   24190.85651059  .00002212  00000+0  24059-3 0  9997
2 40119  97.8846 290.4282 0014454 294.8015  65.1698 14.89023932535800
AEROCUBE 5C             
1 40965U 15058B   24190.64360627  .00002840  00000+0  26826-3 0  9993
2 40965  64.7710 295.7667 0191666 301.6468  56.6065 14.82988044260228
AEROCUBE 7              
1 40966U 15058C   24191.16952946  .00003627  00000+0  32619-3 0  9994
2 40966  64.7684 287.7141 0186543 301.1287  57.1639 14.84917641260397
FOX-1A (AO-85)          
1 40967U 15058D   24190.78032787  .00002855  00000+0  27454-3 0  9997
2 40967  64.7790 309.2886 0190953 297.4112  60.7683 14.82387034  8198
SINOD-D 1               
1 40968U 15058E   24190.92496315  .00004150  00000+0  37685-3 0  9992
2 40968  64.7789 301.4045 0185652 296.3539  61.8610 14.84430387 11041
SNAP-3 ALICE            
1 40970U 15058G   24190.54989125  .00012203  00000+0  83689-3 0  9992
2 40970  64.7699 258.5629 0156030 294.5388  63.9530 14.96902100  8987
LMRST-SAT               
1 40971U 15058H   24190.68855210  .00002885  00000+0  27666-3 0  9993
2 40971  64.7777 305.1026 0192109 298.8118  59.3819 14.82326039  8187
SNAP-3 EDDIE            
1 40972U 15058J   24190.88898590  .00012757  00000+0  86392-3 0  9994
2 40972  64.7673 250.8676 0156629 295.3772  63.1197 14.97251361 11137
PROPCUBE 3              
1 40973U 15058K   24190.75507360  .00003506  00000+0  32030-3 0  9995
2 40973  64.7723 292.5191 0188553 300.1604  58.0938 14.84161396  9237
BISONSAT                
1 40974U 15058L   24190.56329037  .00007611  00000+0  58418-3 0  9997
2 40974  64.7679 266.7041 0169883 297.9228  60.4772 14.91670842  8955
SNAP-3 JIMI             
1 40975U 15058M   24190.59478122  .00005092  00000+0  43028-3 0  9993
2 40975  64.7700 280.7512 0180609 299.1839  59.1306 14.87377503  8211
PROPCUBE 1 (FLORA)      
1 40976U 15058N   24190.69938288  .00002500  00000+0  25109-3 0  9990
2 40976  64.7774 320.6104 0190073 300.0520  58.1852 14.81190074 10981
SINOD-D 3               
1 40977U 15058P   24191.06446994  .00003700  00000+0  35007-3 0  9992
2 40977  64.7768 312.5930 0184736 299.1315  59.1411 14.83214929  9271
VELOX-II                
1 41171U 15077F   24190.48384686  .00524159  00000+0  15680-2 0  9994
2 41171  14.9835 239.9095 0004927 120.8549 239.2267 15.89770549475163
HORYU-4                 
1 41340U 16012D   24190.72387487  .00011505  00000+0  56113-3 0  9994
2 41340  31.0005 195.1795 0010304 192.9846 167.0529 15.17003214461428
RAVAN                   
1 41849U 16067B   24190.78367935  .00009847  00000+0  53600-3 0  9994
2 41849  98.0648   9.7487 0011942 318.2049  41.8268 15.14607723419258
CELTEE 1                
1 41850U 16067C   24191.01506091  .00006327  00000+0  42825-3 0  9998
2 41850  98.1045   1.6395 0002068 108.6340 251.5111 15.06890066418717
OPTICUBE 04             
1 41851U 16067D   24190.92527144  .00003297  00000+0  24966-3 0  9999
2 41851  98.0795 356.7764 0017375 348.7908  11.2926 15.02936310418508
AEROCUBE 8D             
1 41852U 16067E   24190.92010387  .00006485  00000+0  42391-3 0  9990
2 41852  98.1087   1.3484 0005599  47.1349 313.0347 15.08164386418670
AEROCUBE 8C             
1 41853U 16067F   24191.00065815  .00007130  00000+0  46605-3 0  9997
2 41853  98.0906 359.9580 0006975 334.0157  26.0718 15.08119902418670
PROMETHEUS 2-1          
1 41854U 16067G   24190.46120519  .00013802  00000+0  68528-3 0  9991
2 41854  98.1002   7.0994 0011645 348.0205  12.0748 15.17762912418963
PROMETHEUS 2-3          
1 41855U 16067H   24190.91944148  .00016265  00000+0  80733-3 0  9992
2 41855  98.0932   7.0565 0009990 357.2808   2.8368 15.17747462419037
DIDO-2                  
1 42000U 17008BE  24191.11023254  .01874589  22836-5  88547-3 0  9990
2 42000  97.1296 254.5175 0011341 252.0079 107.9975 16.21397366412319
AALTO-1                 
1 42775U 17036L   24190.81430812  .00138630  00000+0  98271-3 0  9995
2 42775  97.0987 220.8012 0007426 130.9200 229.2709 15.73501450392507
CORVUS BC2              
1 42846U 17042X   24190.90102222  .00003557  00000+0  30640-3 0  9997
2 42846  97.3733  14.7961 0007925 352.1214   7.9883 14.97909248380691
CORVUS BC1              
1 42847U 17042Y   24191.06028782  .00004366  00000+0  37353-3 0  9991
2 42847  97.3730  15.3506 0007297 357.7449   2.3740 14.98069618380739
MIRATA                  
1 43015U 17073C   24190.63638465  .00020046  00000+0  92520-3 0  9990
2 43015  97.5923  75.1430 0166989 187.0492 172.8388 15.08616544359565
MAKERSAT 0              
1 43016U 17073D   24190.65804074  .00008945  00000+0  50417-3 0  9997
2 43016  97.5747  69.0530 0193866 209.7203 149.2896 14.98791084359135
GOMX-4B                 
1 43196U 18015E   24191.15847773  .00068176  00000+0  64292-3 0  9990
2 43196  97.6058   6.5078 0007617 222.6026 137.4644 15.66814537358963
GOMX-4A                 
1 43197U 18015F   24191.14239360  .00156066  00000+0  73088-3 0  9996
2 43197  97.5937  12.0810 0007177 214.6732 145.4069 15.82770985359340
CICERO 10               
1 43690U 18088A   24190.95616627  .00550067  12996-3  11146-2 0  9993
2 43690  84.9989 163.2084 0013580 159.8734 200.3089 15.99393850315653
SIRION PATHFINDER-2     
1 43759U 18099B   24190.86500756  .00004519  00000+0  33960-3 0  9990
2 43759  97.5263 246.4033 0010343 204.4630 155.6106 15.03033796305766
CORVUS BC4              
1 43767U 18099K   24190.90842341  .00005212  00000+0  39848-3 0  9995
2 43767  97.5069 243.5914 0009756 272.4558  87.5550 15.02310465305659
MOVE-II                 
1 43780U 18099Y   24190.93491923  .00021282  00000+0  10849-2 0  9993
2 43780  97.5198 253.7334 0005483 250.3917 109.6724 15.16769666306222
SPACEBEE-7              
1 43816U 18099BL  24191.10995621  .00013629  00000+0  78950-3 0  9991
2 43816  97.5476 254.5517 0009754 203.0822 156.9972 15.12289126305726
SPACEBEE-6              
1 43818U 18099BN  24191.14343242  .00034905  00000+0  13967-2 0  9999
2 43818  97.5394 260.3191 0008921 201.4558 158.6306 15.24959288306258
SHIELDS 1               
1 43850U 18104B   24190.72223821  .00012608  00000+0  33045-3 0  9991
2 43850  85.0226 268.4856 0009695   2.5293 357.6005 15.38488746309477
SONATE                  
1 44400U 19038Q   24191.24172419  .00019116  00000+0  55928-3 0  9999
2 44400  97.7121 186.3364 0016337  36.6795 323.5563 15.35173393277461
LUCKY-7                 
1 44406U 19038W   24191.06047503  .00042194  00000+0  85712-3 0  9996
2 44406  97.7009 190.5793 0011949  24.9808 335.2016 15.46138718277742
DUCHIFAT-3              
1 44854U 19089C   24190.58505661  .00014750  00000+0  72949-3 0  9994
2 44854  36.9567 279.0280 0005986 266.3434  93.6628 15.17176922251527
M2 PATHFINDER           
1 45727U 20037E   24190.90584728  .00004181  00000+0  36472-3 0  9994
2 45727  97.7775   7.2264 0012449  57.7648 302.4779 14.97341876219191
NETSAT-4                
1 46504U 20068U   24190.85994940  .00008759  00000+0  46282-3 0  9992
2 46504  97.8069 148.5950 0007662 292.1338  67.9080 15.15724802207454
NETSAT-3                
1 46505U 20068V   24190.85279628  .00009090  00000+0  48830-3 0  9992
2 46505  97.8042 148.0670 0007188 303.1625  56.8917 15.15130833207445
NETSAT-1                
1 46506U 20068W   24190.86113032  .00007234  00000+0  40914-3 0  9993
2 46506  97.8066 147.4979 0006327 318.6280  41.4471 15.13373946207402
NETSAT-2                
1 46507U 20068X   24190.87838086  .00010754  00000+0  56861-3 0  9997
2 46507  97.8056 148.2376 0005638 327.0892  32.9987 15.15650439207403
WILDTRACKCUBE-SIMBA     
1 47941U 21022K   24191.20064651  .00013149  00000+0  57441-3 0  9994
2 47941  97.4580  87.7786 0017253  71.2501 289.0605 15.22102907181815
BEESAT-6                
1 47957U 21022AB  24191.17971288  .01375448  10477-2  26758-2 0  9992
2 47957  97.4114 101.3800 0008533 154.0791 206.0916 16.00464947182544
SMOG-1                  
1 47964U 21022AJ  24190.72349107  .00398444  00000+0  20042-2 0  9997
2 47964  97.4533 103.7323 0006862 111.7089 248.4910 15.80610588181629
